CTC2_L_00289001-01
1 28467U 23917YV  26037.47793981  .00000000  00000+0  00000-0 0  9994
2 28467  55.0000   0.0000 0000000   0.0000   0.0000 13.81096363    10
CTC2_L_00289001-02
1 28468U 26548FV  26037.47793981  .00000000  00000+0  00000-0 0  9998
2 28468  55.0000   0.0000 0000000   0.0000  90.0000 13.81096363    10
CTC2_L_00289001-03
1 28469U 26862YO  26037.47793981  .00000000  00000+0  00000-0 0  9998
2 28469  55.0000   0.0000 0000000   0.0000 180.0000 13.81096363    11
CTC2_L_00289001-04
1 28470U 22539BE  26037.47793981  .00000000  00000+0  00000-0 0  9997
2 28470  55.0000   0.0000 0000000   0.0000 270.0000 13.81096363    13
CTC2_L_00289002-01
1 28471U 26326PL  26037.47793981  .00000000  00000+0  00000-0 0  9996
2 28471  55.0000  12.0000 0000000   0.0000  12.0000 13.81096363    11
CTC2_L_00289002-02
1 28472U 26557NH  26037.47793981  .00000000  00000+0  00000-0 0  9993
2 28472  55.0000  12.0000 0000000   0.0000 102.0000 13.81096363    12
CTC2_L_00289002-03
1 28473U 26112UQ  26037.47793981  .00000000  00000+0  00000-0 0  9991
2 28473  55.0000  12.0000 0000000   0.0000 192.0000 13.81096363    12
CTC2_L_00289002-04
1 28474U 22081XF  26037.47793981  .00000000  00000+0  00000-0 0  9993
2 28474  55.0000  12.0000 0000000   0.0000 282.0000 13.81096363    13
CTC2_L_00289003-01
1 28475U 24679WV  26037.47793981  .00000000  00000+0  00000-0 0  9999
2 28475  55.0000  24.0000 0000000   0.0000  24.0000 13.81096363    11
CTC2_L_00289003-02
1 28476U 25918PF  26037.47793981  .00000000  00000+0  00000-0 0  9997
2 28476  55.0000  24.0000 0000000   0.0000 114.0000 13.81096363    12
CTC2_L_00289003-03
1 28477U 25450SF  26037.47793981  .00000000  00000+0  00000-0 0  9999
2 28477  55.0000  24.0000 0000000   0.0000 204.0000 13.81096363    13
CTC2_L_00289003-04
1 28478U 22022ZT  26037.47793981  .00000000  00000+0  00000-0 0  9992
2 28478  55.0000  24.0000 0000000   0.0000 294.0000 13.81096363    13
CTC2_L_00289004-01
1 28479U 25025ZN  26037.47793981  .00000000  00000+0  00000-0 0  9999
2 28479  55.0000  36.0000 0000000   0.0000  36.0000 13.81096363    11
CTC2_L_00289004-02
1 28480U 26034AT  26037.47793981  .00000000  00000+0  00000-0 0  9992
2 28480  55.0000  36.0000 0000000   0.0000 126.0000 13.81096363    13
CTC2_L_00289004-03
1 28481U 23523YH  26037.47793981  .00000000  00000+0  00000-0 0  9993
2 28481  55.0000  36.0000 0000000   0.0000 216.0000 13.81096363    14
CTC2_L_00289004-04
1 28482U 23202HL  26037.47793981  .00000000  00000+0  00000-0 0  9998
2 28482  55.0000  36.0000 0000000   0.0000 306.0000 13.81096363    15
CTC2_L_00289005-01
1 28483U 25029VO  26037.47793981  .00000000  00000+0  00000-0 0  9998
2 28483  55.0000  48.0000 0000000   0.0000  48.0000 13.81096363    12
CTC2_L_00289005-02
1 28484U 26039KG  26037.47793981  .00000000  00000+0  00000-0 0  9991
2 28484  55.0000  48.0000 0000000   0.0000 138.0000 13.81096363    13
CTC2_L_00289005-03
1 28485U 26438TD  26037.47793981  .00000000  00000+0  00000-0 0  9995
2 28485  55.0000  48.0000 0000000   0.0000 228.0000 13.81096363    14
CTC2_L_00289005-04
1 28486U 23658MS  26037.47793981  .00000000  00000+0  00000-0 0  9997
2 28486  55.0000  48.0000 0000000   0.0000 318.0000 13.81096363    15
CTC2_L_00289006-01
1 28487U 22680YF  26037.47793981  .00000000  00000+0  00000-0 0  9992
2 28487  55.0000  60.0000 0000000   0.0000  60.0000 13.81096363    14
CTC2_L_00289006-02
1 28488U 24426PS  26037.47793981  .00000000  00000+0  00000-0 0  9993
2 28488  55.0000  60.0000 0000000   0.0000 150.0000 13.81096363    15
CTC2_L_00289006-03
1 28489U 23812EQ  26037.47793981  .00000000  00000+0  00000-0 0  9992
2 28489  55.0000  60.0000 0000000   0.0000 240.0000 13.81096363    16
CTC2_L_00289006-04
1 28490U 22259IB  26037.47793981  .00000000  00000+0  00000-0 0  9998
2 28490  55.0000  60.0000 0000000   0.0000 330.0000 13.81096363    18
CTC2_L_00289007-01
1 28491U 22140OG  26037.47793981  .00000000  00000+0  00000-0 0  9998
2 28491  55.0000  72.0000 0000000   0.0000  72.0000 13.81096363    15
CTC2_L_00289007-02
1 28492U 23705WC  26037.47793981  .00000000  00000+0  00000-0 0  9997
2 28492  55.0000  72.0000 0000000   0.0000 162.0000 13.81096363    16
CTC2_L_00289007-03
1 28493U 24219NQ  26037.47793981  .00000000  00000+0  00000-0 0  9999
2 28493  55.0000  72.0000 0000000   0.0000 252.0000 13.81096363    17
CTC2_L_00289007-04
1 28494U 24370YE  26037.47793981  .00000000  00000+0  00000-0 0  9998
2 28494  55.0000  72.0000 0000000   0.0000 342.0000 13.81096363    18
CTC2_L_00289008-01
1 28495U 23750SR  26037.47793981  .00000000  00000+0  00000-0 0  9990
2 28495  55.0000  84.0000 0000000   0.0000  84.0000 13.81096363    15
CTC2_L_00289008-02
1 28496U 23091ZP  26037.47793981  .00000000  00000+0  00000-0 0  9999
2 28496  55.0000  84.0000 0000000   0.0000 174.0000 13.81096363    16
CTC2_L_00289008-03
1 28497U 23588BX  26037.47793981  .00000000  00000+0  00000-0 0  9991
2 28497  55.0000  84.0000 0000000   0.0000 264.0000 13.81096363    17
CTC2_L_00289008-04
1 28498U 22214SJ  26037.47793981  .00000000  00000+0  00000-0 0  9997
2 28498  55.0000  84.0000 0000000   0.0000 354.0000 13.81096363    18
CTC2_L_00289009-01
1 28499U 26723CY  26037.47793981  .00000000  00000+0  00000-0 0  9997
2 28499  55.0000  96.0000 0000000   0.0000  96.0000 13.81096363    15
CTC2_L_00289009-02
1 28500U 24831IG  26037.47793981  .00000000  00000+0  00000-0 0  9998
2 28500  55.0000  96.0000 0000000   0.0000 186.0000 13.81096363    18
CTC2_L_00289009-03
1 28501U 26913WR  26037.47793981  .00000000  00000+0  00000-0 0  9992
2 28501  55.0000  96.0000 0000000   0.0000 276.0000 13.81096363    19
CTC2_L_00289009-04
1 28502U 23534EP  26037.47793981  .00000000  00000+0  00000-0 0  9999
2 28502  55.0000  96.0000 0000000   0.0000   6.0000 13.81096363    11
CTC2_L_00289010-01
1 28503U 25998RS  26037.47793981  .00000000  00000+0  00000-0 0  9996
2 28503  55.0000 108.0000 0000000   0.0000 108.0000 13.81096363    19
CTC2_L_00289010-02
1 28504U 26037MN  26037.47793981  .00000000  00000+0  00000-0 0  9992
2 28504  55.0000 108.0000 0000000   0.0000 198.0000 13.81096363    19
CTC2_L_00289010-03
1 28505U 23822BJ  26037.47793981  .00000000  00000+0  00000-0 0  9992
2 28505  55.0000 108.0000 0000000   0.0000 288.0000 13.81096363    10
CTC2_L_00289010-04
1 28506U 22024FT  26037.47793981  .00000000  00000+0  00000-0 0  9996
2 28506  55.0000 108.0000 0000000   0.0000  18.0000 13.81096363    12
CTC2_L_00289011-01
1 28507U 24214UN  26037.47793981  .00000000  00000+0  00000-0 0  9990
2 28507  55.0000 120.0000 0000000   0.0000 120.0000 13.81096363    11
CTC2_L_00289011-02
1 28508U 25624EA  26037.47793981  .00000000  00000+0  00000-0 0  9997
2 28508  55.0000 120.0000 0000000   0.0000 210.0000 13.81096363    12
CTC2_L_00289011-03
1 28509U 22040LH  26037.47793981  .00000000  00000+0  00000-0 0  9997
2 28509  55.0000 120.0000 0000000   0.0000 300.0000 13.81096363    13
CTC2_L_00289011-04
1 28510U 24607JG  26037.47793981  .00000000  00000+0  00000-0 0  9990
2 28510  55.0000 120.0000 0000000   0.0000  30.0000 13.81096363    15
CTC2_L_00289012-01
1 28511U 26587PV  26037.47793981  .00000000  00000+0  00000-0 0  9990
2 28511  55.0000 132.0000 0000000   0.0000 132.0000 13.81096363    12
CTC2_L_00289012-02
1 28512U 22692ZH  26037.47793981  .00000000  00000+0  00000-0 0  9994
2 28512  55.0000 132.0000 0000000   0.0000 222.0000 13.81096363    13
CTC2_L_00289012-03
1 28513U 26510IL  26037.47793981  .00000000  00000+0  00000-0 0  9998
2 28513  55.0000 132.0000 0000000   0.0000 312.0000 13.81096363    14
CTC2_L_00289012-04
1 28514U 26485YY  26037.47793981  .00000000  00000+0  00000-0 0  9990
2 28514  55.0000 132.0000 0000000   0.0000  42.0000 13.81096363    15
CTC2_L_00289013-01
1 28515U 24173HV  26037.47793981  .00000000  00000+0  00000-0 0  9993
2 28515  55.0000 144.0000 0000000   0.0000 144.0000 13.81096363    12
CTC2_L_00289013-02
1 28516U 26564MA  26037.47793981  .00000000  00000+0  00000-0 0  9990
2 28516  55.0000 144.0000 0000000   0.0000 234.0000 13.81096363    13
CTC2_L_00289013-03
1 28517U 24444MU  26037.47793981  .00000000  00000+0  00000-0 0  9996
2 28517  55.0000 144.0000 0000000   0.0000 324.0000 13.81096363    14
CTC2_L_00289013-04
1 28518U 23576YI  26037.47793981  .00000000  00000+0  00000-0 0  9992
2 28518  55.0000 144.0000 0000000   0.0000  54.0000 13.81096363    15
CTC2_L_00289014-01
1 28519U 25875NM  26037.47793981  .00000000  00000+0  00000-0 0  9997
2 28519  55.0000 156.0000 0000000   0.0000 156.0000 13.81096363    12
CTC2_L_00289014-02
1 28520U 25960UT  26037.47793981  .00000000  00000+0  00000-0 0  9994
2 28520  55.0000 156.0000 0000000   0.0000 246.0000 13.81096363    14
CTC2_L_00289014-03
1 28521U 23333LU  26037.47793981  .00000000  00000+0  00000-0 0  9997
2 28521  55.0000 156.0000 0000000   0.0000 336.0000 13.81096363    15
CTC2_L_00289014-04
1 28522U 23786EM  26037.47793981  .00000000  00000+0  00000-0 0  9990
2 28522  55.0000 156.0000 0000000   0.0000  66.0000 13.81096363    16
CTC2_L_00289015-01
1 28523U 23279NI  26037.47793981  .00000000  00000+0  00000-0 0  9998
2 28523  55.0000 168.0000 0000000   0.0000 168.0000 13.81096363    13
CTC2_L_00289015-02
1 28524U 24712ER  26037.47793981  .00000000  00000+0  00000-0 0  9992
2 28524  55.0000 168.0000 0000000   0.0000 258.0000 13.81096363    14
CTC2_L_00289015-03
1 28525U 22971ZF  26037.47793981  .00000000  00000+0  00000-0 0  9998
2 28525  55.0000 168.0000 0000000   0.0000 348.0000 13.81096363    15
CTC2_L_00289015-04
1 28526U 26899RD  26037.47793981  .00000000  00000+0  00000-0 0  9992
2 28526  55.0000 168.0000 0000000   0.0000  78.0000 13.81096363    16
CTC2_L_00289016-01
1 28527U 26981RW  26037.47793981  .00000000  00000+0  00000-0 0  9995
2 28527  55.0000 180.0000 0000000   0.0000 180.0000 13.81096363    15
CTC2_L_00289016-02
1 28528U 23126VS  26037.47793981  .00000000  00000+0  00000-0 0  9994
2 28528  55.0000 180.0000 0000000   0.0000 270.0000 13.81096363    16
